[{"OBJECT_NAME":"IRIDIUM 135","OBJECT_ID":"2017-083A","EPOCH":"2026-03-09T20:54:11.059776","MEAN_MOTION":14.34219982,"ECCENTRICITY":0.00022174,"INCLINATION":86.4022,"RA_OF_ASC_NODE":3.5181,"ARG_OF_PERICENTER":86.9121,"MEAN_ANOMALY":273.2329,"EPHEMERIS_TYPE":0,"CLASSIFICATION_TYPE":"U","NORAD_CAT_ID":43070,"ELEMENT_SET_NO":999,"REV_AT_EPOCH":42991,"BSTAR":4.5894748e-5,"MEAN_MOTION_DOT":1.48e-6,"MEAN_MOTION_DDOT":0},{"OBJECT_NAME":"SL-8 DEB","OBJECT_ID":"1992-053C","EPOCH":"2026-03-09T12:48:23.813280","MEAN_MOTION":14.3556257,"ECCENTRICITY":0.002196,"INCLINATION":74.0525,"RA_OF_ASC_NODE":209.9141,"ARG_OF_PERICENTER":242.7687,"MEAN_ANOMALY":236.3623,"EPHEMERIS_TYPE":0,"CLASSIFICATION_TYPE":"U","NORAD_CAT_ID":24974,"ELEMENT_SET_NO":999,"REV_AT_EPOCH":50730,"BSTAR":0.00047487,"MEAN_MOTION_DOT":1.345e-5,"MEAN_MOTION_DDOT":0}]
